OBJECT_NAME,OBJECT_ID,EPOCH,MEAN_MOTION,ECCENTRICITY,INCLINATION,RA_OF_ASC_NODE,ARG_OF_PERICENTER,MEAN_ANOMALY,EPHEMERIS_TYPE,CLASSIFICATION_TYPE,NORAD_CAT_ID,ELEMENT_SET_NO,REV_AT_EPOCH,BSTAR,MEAN_MOTION_DOT,MEAN_MOTION_DDOT
SL-12 R/B(2),1985-042D,2026-07-13T11:39:02.766816,14.22010720,.00372754,71.1066,181.9538,288.6952,206.4049,0,U,15772,999,13227,.1148371E-5,-.45E-6,0
SL-14 R/B,1985-069B,2026-07-13T16:34:13.312704,14.86534559,.0019952,82.5264,266.4415,131.9753,228.3167,0,U,15945,999,19155,.22435E-4,.224E-5,0
SL-16 R/B,1985-097B,2026-07-13T13:03:48.066048,14.16612350,.0005562,71.0008,235.5886,54.9585,52.2506,0,U,16182,999,10505,.46656E-4,.45E-6,0
SL-14 R/B,1986-006B,2026-07-13T20:01:19.098048,14.86967664,.0075362,82.5282,141.0380,213.4209,146.2241,0,U,16496,999,16795,.21726E-4,.231E-5,0
COSMOS 1743,1986-034A,2026-07-13T18:07:37.644384,15.69503231,.0005351,82.5287,300.4321,180.7923,179.3331,0,U,16719,999,19995,.31835E-3,.37584E-3,0
SL-14 R/B,1986-046B,2026-07-13T19:46:23.009088,14.85689957,.0023409,82.4837,321.0061,167.4760,192.7043,0,U,16792,999,14513,.25918E-4,.25E-5,0
SL-14 R/B,1986-055B,2026-07-13T21:25:28.906752,14.85739778,.0017309,82.5202,8.0210,274.9710,200.4679,0,U,16882,999,13810,.22329E-4,.218E-5,0
AJISAI (EGS),1986-061A,2026-07-13T21:11:07.197216,12.44516682,.0011097,50.0106,65.3072,248.5061,203.6466,0,U,16908,999,48371,-.48357E-4,-.104E-5,0
SL-14 R/B,1987-024B,2026-07-13T21:05:24.184032,14.86231187,.0017699,82.5296,334.1611,198.2392,161.8192,0,U,17567,999,10687,.24408E-4,.239E-5,0
COSMOS 1833,1987-027A,2026-07-13T20:47:56.837184,14.13066238,.0024156,70.9212,60.7929,10.8271,349.3365,0,U,17589,999,2814,.80235E-4,.102E-5,0
SL-16 R/B,1987-027B,2026-07-13T19:49:54.827328,14.17173229,.0007146,71.0031,10.6907,283.0057,77.0269,0,U,17590,999,3321,.30289E-4,.13E-6,0
SL-14 R/B,1987-038B,2026-07-13T20:54:44.271072,14.85460944,.0020795,82.5011,177.9368,106.2421,254.1085,0,U,17912,999,9796,.21686E-4,.212E-5,0
COSMOS 1844,1987-041A,2026-07-13T20:05:08.349216,14.14580291,.0031415,70.8997,128.0946,197.2119,162.7940,0,U,17973,999,2142,.8343E-4,.113E-5,0
SL-14 R/B,1987-055B,2026-07-13T14:58:24.998880,14.85726439,.0019514,82.4973,230.3067,320.5682,39.4113,0,U,18153,999,8863,.20151E-4,.199E-5,0
COSMOS 1867,1987-060A,2026-07-13T16:19:42.652992,14.31518371,.0017119,65.0119,313.8622,282.0141,77.9025,0,U,18187,999,3797,.14833E-4,-.61E-6,0
SL-14 R/B,1988-001B,2026-07-13T19:55:00.128640,14.85626284,.0018068,82.5121,76.7075,176.2500,183.8855,0,U,18749,999,6075,.21908E-4,.215E-5,0
COSMOS 1933,1988-020A,2026-07-13T20:26:59.718912,15.18884031,.0005818,82.5141,126.0283,110.7649,249.4210,0,U,18958,999,6937,.8097E-4,.172E-4,0
SL-3 R/B,1988-032B,2026-07-13T21:19:28.839072,15.21025733,.002638,97.5268,177.9077,150.1294,210.1454,0,U,19046,999,7128,.10538E-3,.2287E-4,0
SL-16 R/B,1988-039B,2026-07-13T21:30:53.144352,14.19631377,.0020692,71.0123,161.6810,151.4551,208.7712,0,U,19120,999,97629,-.10825E-4,-.71E-6,0
COSMOS 1953,1988-050A,2026-07-13T13:39:29.128032,15.30324282,.0011652,82.5059,31.4209,45.1790,315.0396,0,U,19210,999,5702,.16195E-3,.4792E-4,0
SL-8 R/B,1988-053B,2026-07-13T12:02:52.311840,14.38977722,.00196491,74.0460,240.5503,26.6543,78.4735,0,U,19257,999,99469,.49609374E-4,.127E-5,0
COSMOS 1975,1988-093A,2026-07-13T20:19:38.373024,15.29651979,.0012544,82.5194,350.8759,86.5606,273.7069,0,U,19573,999,3868,.13956E-3,.4052E-4,0
SL-14 R/B,1988-093B,2026-07-13T19:44:11.600736,14.85759601,.002014,82.5316,283.6406,344.9967,154.5219,0,U,19574,999,1974,.2128E-4,.21E-5,0
SL-16 R/B,1988-102B,2026-07-13T13:31:47.130816,14.16166976,.0014407,70.9980,246.6401,188.1501,171.9390,0,U,19650,999,94471,-.66436E-4,-.179E-5,0
INTERCOSMOS 24,1989-080A,2026-07-13T14:55:14.212128,12.59691566,.1187263,82.6047,22.4389,0.5981,359.6230,0,U,20261,999,68265,.51426E-4,.189E-5,0
SL-14 R/B,1989-080C,2026-07-13T17:20:20.220864,12.50578307,.1228649,82.5935,92.2585,256.6619,89.4897,0,U,20262,999,67590,.19139E-4,.66E-6,0
DELTA 1 R/B,1989-089B,2026-07-13T11:56:48.017472,14.50747218,.00706448,97.0634,21.8455,85.2297,275.6963,0,U,20323,999,91397,.44253392E-4,.145E-5,0
ARIANE 40 R/B,1990-005H,2026-07-13T17:28:27.738048,14.39940323,.0010179,98.2946,251.5170,178.3306,181.7918,0,U,20443,999,91094,.46908E-4,.105E-5,0
DELTA 2 R/B(1),1990-008B,2026-07-12T22:15:41.067360,15.73246033,.00600556,35.6002,62.9055,354.6112,5.3978,0,U,20453,999,94575,.57423144E-3,.92909E-3,0
COSMOS 2058,1990-010A,2026-07-13T19:17:58.540992,15.12152062,.0007892,82.4671,283.1044,255.8721,104.1633,0,U,20465,999,96129,.89698E-4,.1576E-4,0
SL-14 R/B,1990-010B,2026-07-13T21:00:15.403392,14.83662641,.0018332,82.5034,148.8820,241.9629,117.9732,0,U,20466,999,94719,.20667E-4,.195E-5,0
