SL-12 R/B(2)            
1 15772U 85042D   26194.48544869 -.00000045  00000+0  11484-5 0  9993
2 15772  71.1066 181.9538 0037275 288.6952 206.4049 14.22010720132273
SL-14 R/B               
1 15945U 85069B   26194.69043186  .00000224  00000+0  22435-4 0  9998
2 15945  82.5264 266.4415 0019952 131.9753 228.3167 14.86534559191556
SL-16 R/B               
1 16182U 85097B   26194.54430632  .00000045  00000+0  46656-4 0  9995
2 16182  71.0008 235.5886 0005562  54.9585  52.2506 14.16612350105057
SL-14 R/B               
1 16496U 86006B   26194.83424882  .00000231  00000+0  21726-4 0  9994
2 16496  82.5282 141.0380 0075362 213.4209 146.2241 14.86967664167951
COSMOS 1743             
1 16719U 86034A   26194.75529681  .00037584  00000+0  31835-3 0  9999
2 16719  82.5287 300.4321 0005351 180.7923 179.3331 15.69503231199950
SL-14 R/B               
1 16792U 86046B   26194.82387742  .00000250  00000+0  25918-4 0  9997
2 16792  82.4837 321.0061 0023409 167.4760 192.7043 14.85689957145133
SL-14 R/B               
1 16882U 86055B   26194.89269568  .00000218  00000+0  22329-4 0  9996
2 16882  82.5202   8.0210 0017309 274.9710 200.4679 14.85739778138107
AJISAI (EGS)            
1 16908U 86061A   26194.88272219 -.00000104  00000+0 -48357-4 0  9993
2 16908  50.0106  65.3072 0011097 248.5061 203.6466 12.44516682483714
SL-14 R/B               
1 17567U 87024B   26194.87875213  .00000239  00000+0  24408-4 0  9995
2 17567  82.5296 334.1611 0017699 198.2392 161.8192 14.86231187106876
COSMOS 1833             
1 17589U 87027A   26194.86663006  .00000102  00000+0  80235-4 0  9995
2 17589  70.9212  60.7929 0024156  10.8271 349.3365 14.13066238 28145
SL-16 R/B               
1 17590U 87027B   26194.82632902  .00000013  00000+0  30289-4 0  9999
2 17590  71.0031  10.6907 0007146 283.0057  77.0269 14.17173229 33219
SL-14 R/B               
1 17912U 87038B   26194.87134573  .00000212  00000+0  21686-4 0  9997
2 17912  82.5011 177.9368 0020795 106.2421 254.1085 14.85460944 97960
COSMOS 1844             
1 17973U 87041A   26194.83690219  .00000113  00000+0  83430-4 0  9993
2 17973  70.8997 128.0946 0031415 197.2119 162.7940 14.14580291 21426
SL-14 R/B               
1 18153U 87055B   26194.62390045  .00000199  00000+0  20151-4 0  9995
2 18153  82.4973 230.3067 0019514 320.5682  39.4113 14.85726439 88635
COSMOS 1867             
1 18187U 87060A   26194.68035478 -.00000061  00000+0  14833-4 0  9999
2 18187  65.0119 313.8622 0017119 282.0141  77.9025 14.31518371 37971
SL-14 R/B               
1 18749U 88001B   26194.82986260  .00000215  00000+0  21908-4 0  9990
2 18749  82.5121  76.7075 0018068 176.2500 183.8855 14.85626284 60758
COSMOS 1933             
1 18958U 88020A   26194.85208008  .00001720  00000+0  80970-4 0  9999
2 18958  82.5141 126.0283 0005818 110.7649 249.4210 15.18884031 69372
SL-3 R/B                
1 19046U 88032B   26194.88852823  .00002287  00000+0  10538-3 0  9995
2 19046  97.5268 177.9077 0026380 150.1294 210.1454 15.21025733 71282
SL-16 R/B               
1 19120U 88039B   26194.89644843 -.00000071  00000+0 -10825-4 0  9998
2 19120  71.0123 161.6810 0020692 151.4551 208.7712 14.19631377976295
COSMOS 1953             
1 19210U 88050A   26194.56908713  .00004792  00000+0  16195-3 0  9991
2 19210  82.5059  31.4209 0011652  45.1790 315.0396 15.30324282 57025
SL-8 R/B                
1 19257U 88053B   26194.50199435  .00000127  00000+0  49609-4 0  9997
2 19257  74.0460 240.5503 0019649  26.6543  78.4735 14.38977722994692
COSMOS 1975             
1 19573U 88093A   26194.84697191  .00004052  00000+0  13956-3 0  9997
2 19573  82.5194 350.8759 0012544  86.5606 273.7069 15.29651979 38683
SL-14 R/B               
1 19574U 88093B   26194.82235649  .00000210  00000+0  21280-4 0  9994
2 19574  82.5316 283.6406 0020140 344.9967 154.5219 14.85759601 19745
SL-16 R/B               
1 19650U 88102B   26194.56373994 -.00000179  00000+0 -66436-4 0  9995
2 19650  70.9980 246.6401 0014407 188.1501 171.9390 14.16166976944711
INTERCOSMOS 24          
1 20261U 89080A   26194.62169227  .00000189  00000+0  51426-4 0  9992
2 20261  82.6047  22.4389 1187263   0.5981 359.6230 12.59691566682654
SL-14 R/B               
1 20262U 89080C   26194.72245626  .00000066  00000+0  19139-4 0  9991
2 20262  82.5935  92.2585 1228649 256.6619  89.4897 12.50578307675904
DELTA 1 R/B             
1 20323U 89089B   26194.49777798  .00000145  00000+0  44253-4 0  9995
2 20323  97.0634  21.8455 0070644  85.2297 275.6963 14.50747218913976
ARIANE 40 R/B           
1 20443U 90005H   26194.72809882  .00000105  00000+0  46908-4 0  9999
2 20443  98.2946 251.5170 0010179 178.3306 181.7918 14.39940323910946
DELTA 2 R/B(1)          
1 20453U 90008B   26193.92755865  .00092909  00000+0  57423-3 0  9991
2 20453  35.6002  62.9055 0060055 354.6112   5.3978 15.73246033945753
COSMOS 2058             
1 20465U 90010A   26194.80414978  .00001576  00000+0  89698-4 0  9992
2 20465  82.4671 283.1044 0007892 255.8721 104.1633 15.12152062961295
SL-14 R/B               
1 20466U 90010B   26194.87517828  .00000195  00000+0  20667-4 0  9995
2 20466  82.5034 148.8820 0018332 241.9629 117.9732 14.83662641947194
